[Satellite]
VERSION=1.1
NAME=ZHANGZHENG-1 (CSES)
NICKNAME=ZHANGZHENG-1 (CSES)
TLE1=1 43194U 18015C   20158.19494338  .00001012  00000-0  48744-4 0  9998
TLE2=2 43194  97.4343 283.3918 0016249 145.8444 264.6035 15.20921517129954
STATUS=0
